IRIDIUM 159             
1 43578U 18061K   25212.89896029  .00000265  00000+0  87700-4 0  9994
2 43578  86.3998 190.5291 0002492  86.9124 273.2357 14.34219803367477
IRIDIUM 180             
1 43922U 19002A   25212.82869086  .00000166  00000+0  52135-4 0  9993
2 43922  86.3996 127.5419 0002217  80.8968 279.2479 14.34217851343076
IRIDIUM 176             
1 43923U 19002B   25212.82718470  .00000947  00000+0  14635-3 0  9993
2 43923  86.6120 127.5316 0001876  76.3135 283.8291 14.72256489352111
IRIDIUM 168             
1 43924U 19002C   25212.82234862  .00000070  00000+0  18016-4 0  9997
2 43924  86.3999 127.6130 0002179  83.2494 276.8950 14.34218090343051
IRIDIUM 173             
1 43925U 19002D   25212.80966315  .00000152  00000+0  47156-4 0  9999
2 43925  86.3996 127.5203 0002123  79.2328 280.9107 14.34218356343032
IRIDIUM 169             
1 43926U 19002E   25212.87835540  .00000338  00000+0  10400-3 0  9999
2 43926  86.4281 159.0811 0001127  56.6876 303.4430 14.38610439344174
IRIDIUM 172             
1 43927U 19002F   25212.87308984  .00000142  00000+0  43598-4 0  9995
2 43927  86.3995 127.5007 0002416  79.4615 280.6853 14.34218021343057
IRIDIUM 175             
1 43928U 19002G   25212.75425059  .00000553  00000+0  83748-4 0  9993
2 43928  86.1465  77.5306 0001898 109.5169 250.6253 14.72239516352095
